CCSDS_OMM_VERS = 2.0
CREATION_DATE  = 
ORIGINATOR     = 

OBJECT_NAME    = 2026-023J
OBJECT_ID      = 2026-023J
CENTER_NAME    = EARTH
REF_FRAME      = TEME
TIME_SYSTEM    = UTC
MEAN_ELEMENT_THEORY = SGP/SGP4

EPOCH          = 2026-02-18T04:50:04.587072
MEAN_MOTION    = 15.22704665
ECCENTRICITY   = .002287
INCLINATION    = 96.6393
RA_OF_ASC_NODE = 126.9179
ARG_OF_PERICENTER = 181.3597
MEAN_ANOMALY   = 178.7584

EPHEMERIS_TYPE = 0
CLASSIFICATION_TYPE = U
NORAD_CAT_ID   = 67682
ELEMENT_SET_NO = 999
REV_AT_EPOCH   = 187
BSTAR          = .49769E-3
MEAN_MOTION_DOT = .11633E-3
MEAN_MOTION_DDOT = 0

CCSDS_OMM_VERS = 2.0
CREATION_DATE  = 
ORIGINATOR     = 

OBJECT_NAME    = ISS OBJECT XZ
OBJECT_ID      = 1998-067XZ
CENTER_NAME    = EARTH
REF_FRAME      = TEME
TIME_SYSTEM    = UTC
MEAN_ELEMENT_THEORY = SGP/SGP4

EPOCH          = 2026-02-17T13:26:20.762592
MEAN_MOTION    = 15.50177657
ECCENTRICITY   = .0010438
INCLINATION    = 51.6311
RA_OF_ASC_NODE = 171.7382
ARG_OF_PERICENTER = 120.3988
MEAN_ANOMALY   = 239.8034

EPHEMERIS_TYPE = 0
CLASSIFICATION_TYPE = U
NORAD_CAT_ID   = 67683
ELEMENT_SET_NO = 999
REV_AT_EPOCH   = 166
BSTAR          = .59633E-3
MEAN_MOTION_DOT = .34002E-3
MEAN_MOTION_DDOT = 0

CCSDS_OMM_VERS = 2.0
CREATION_DATE  = 
ORIGINATOR     = 

OBJECT_NAME    = GXIBA-1
OBJECT_ID      = 1998-067YA
CENTER_NAME    = EARTH
REF_FRAME      = TEME
TIME_SYSTEM    = UTC
MEAN_ELEMENT_THEORY = SGP/SGP4

EPOCH          = 2026-02-17T13:18:50.345568
MEAN_MOTION    = 15.51206196
ECCENTRICITY   = .0012007
INCLINATION    = 51.6311
RA_OF_ASC_NODE = 171.7048
ARG_OF_PERICENTER = 113.2004
MEAN_ANOMALY   = 247.0252

EPHEMERIS_TYPE = 0
CLASSIFICATION_TYPE = U
NORAD_CAT_ID   = 67684
ELEMENT_SET_NO = 999
REV_AT_EPOCH   = 166
BSTAR          = .1004E-2
MEAN_MOTION_DOT = .59962E-3
MEAN_MOTION_DDOT = 0

CCSDS_OMM_VERS = 2.0
CREATION_DATE  = 
ORIGINATOR     = 

OBJECT_NAME    = CORAL
OBJECT_ID      = 1998-067YB
CENTER_NAME    = EARTH
REF_FRAME      = TEME
TIME_SYSTEM    = UTC
MEAN_ELEMENT_THEORY = SGP/SGP4

EPOCH          = 2026-02-17T21:09:00.063936
MEAN_MOTION    = 15.50382591
ECCENTRICITY   = .0012301
INCLINATION    = 51.6310
RA_OF_ASC_NODE = 170.1343
ARG_OF_PERICENTER = 117.1284
MEAN_ANOMALY   = 243.0961

EPHEMERIS_TYPE = 0
CLASSIFICATION_TYPE = U
NORAD_CAT_ID   = 67685
ELEMENT_SET_NO = 999
REV_AT_EPOCH   = 171
BSTAR          = .69545E-3
MEAN_MOTION_DOT = .40088E-3
MEAN_MOTION_DDOT = 0

CCSDS_OMM_VERS = 2.0
CREATION_DATE  = 
ORIGINATOR     = 

OBJECT_NAME    = ISS OBJECT YC
OBJECT_ID      = 1998-067YC
CENTER_NAME    = EARTH
REF_FRAME      = TEME
TIME_SYSTEM    = UTC
MEAN_ELEMENT_THEORY = SGP/SGP4

EPOCH          = 2026-02-17T13:23:32.567712
MEAN_MOTION    = 15.50561623
ECCENTRICITY   = .0007773
INCLINATION    = 51.6320
RA_OF_ASC_NODE = 171.7264
ARG_OF_PERICENTER = 88.8855
MEAN_ANOMALY   = 271.3025

EPHEMERIS_TYPE = 0
CLASSIFICATION_TYPE = U
NORAD_CAT_ID   = 67686
ELEMENT_SET_NO = 999
REV_AT_EPOCH   = 166
BSTAR          = .73145E-3
MEAN_MOTION_DOT = .42395E-3
MEAN_MOTION_DDOT = 0

CCSDS_OMM_VERS = 2.0
CREATION_DATE  = 
ORIGINATOR     = 

OBJECT_NAME    = LEOPARD
OBJECT_ID      = 1998-067YD
CENTER_NAME    = EARTH
REF_FRAME      = TEME
TIME_SYSTEM    = UTC
MEAN_ELEMENT_THEORY = SGP/SGP4

EPOCH          = 2026-02-17T14:58:19.655040
MEAN_MOTION    = 15.50286093
ECCENTRICITY   = .00078895
INCLINATION    = 51.6322
RA_OF_ASC_NODE = 171.4167
ARG_OF_PERICENTER = 91.8390
MEAN_ANOMALY   = 268.3503

EPHEMERIS_TYPE = 0
CLASSIFICATION_TYPE = U
NORAD_CAT_ID   = 67687
ELEMENT_SET_NO = 999
REV_AT_EPOCH   = 159
BSTAR          = .66032976E-3
MEAN_MOTION_DOT = .37832E-3
MEAN_MOTION_DDOT = 0

CCSDS_OMM_VERS = 2.0
CREATION_DATE  = 
ORIGINATOR     = 

OBJECT_NAME    = ISS OBJECT YE
OBJECT_ID      = 1998-067YE
CENTER_NAME    = EARTH
REF_FRAME      = TEME
TIME_SYSTEM    = UTC
MEAN_ELEMENT_THEORY = SGP/SGP4

EPOCH          = 2026-02-17T14:56:52.657152
MEAN_MOTION    = 15.50474672
ECCENTRICITY   = .00077405
INCLINATION    = 51.6318
RA_OF_ASC_NODE = 171.4087
ARG_OF_PERICENTER = 89.9843
MEAN_ANOMALY   = 270.2033

EPHEMERIS_TYPE = 0
CLASSIFICATION_TYPE = U
NORAD_CAT_ID   = 67688
ELEMENT_SET_NO = 999
REV_AT_EPOCH   = 159
BSTAR          = .74973135E-3
MEAN_MOTION_DOT = .43336E-3
MEAN_MOTION_DDOT = 0

CCSDS_OMM_VERS = 2.0
CREATION_DATE  = 
ORIGINATOR     = 

OBJECT_NAME    = PRC TEST SPACECRAFT 4
OBJECT_ID      = 2026-024A
CENTER_NAME    = EARTH
REF_FRAME      = TEME
TIME_SYSTEM    = UTC
MEAN_ELEMENT_THEORY = SGP/SGP4

EPOCH          = 2026-02-18T04:48:15.195168
MEAN_MOTION    = 14.91674046
ECCENTRICITY   = .000619
INCLINATION    = 49.9851
RA_OF_ASC_NODE = 114.2605
ARG_OF_PERICENTER = 284.9701
MEAN_ANOMALY   = 75.0555

EPHEMERIS_TYPE = 0
CLASSIFICATION_TYPE = U
NORAD_CAT_ID   = 67689
ELEMENT_SET_NO = 999
REV_AT_EPOCH   = 167
BSTAR          = .21464E-4
MEAN_MOTION_DOT = -.26E-6
MEAN_MOTION_DDOT = 0

CCSDS_OMM_VERS = 2.0
CREATION_DATE  = 
ORIGINATOR     = 

OBJECT_NAME    = CZ-2F R/B
OBJECT_ID      = 2026-024B
CENTER_NAME    = EARTH
REF_FRAME      = TEME
TIME_SYSTEM    = UTC
MEAN_ELEMENT_THEORY = SGP/SGP4

EPOCH          = 2026-02-18T03:50:19.296384
MEAN_MOTION    = 15.33494680
ECCENTRICITY   = .0176742
INCLINATION    = 49.9876
RA_OF_ASC_NODE = 112.4903
ARG_OF_PERICENTER = 193.9597
MEAN_ANOMALY   = 165.6441

EPHEMERIS_TYPE = 0
CLASSIFICATION_TYPE = U
NORAD_CAT_ID   = 67690
ELEMENT_SET_NO = 999
REV_AT_EPOCH   = 169
BSTAR          = .37601E-3
MEAN_MOTION_DOT = .20202E-3
MEAN_MOTION_DDOT = 0

CCSDS_OMM_VERS = 2.0
CREATION_DATE  = 
ORIGINATOR     = 

OBJECT_NAME    = CZ-2F DEB
OBJECT_ID      = 2026-024C
CENTER_NAME    = EARTH
REF_FRAME      = TEME
TIME_SYSTEM    = UTC
MEAN_ELEMENT_THEORY = SGP/SGP4

EPOCH          = 2026-02-18T03:26:37.076352
MEAN_MOTION    = 15.70392239
ECCENTRICITY   = .0240129
INCLINATION    = 49.9078
RA_OF_ASC_NODE = 110.0327
ARG_OF_PERICENTER = 201.8463
MEAN_ANOMALY   = 157.2134

EPHEMERIS_TYPE = 0
CLASSIFICATION_TYPE = U
NORAD_CAT_ID   = 67691
ELEMENT_SET_NO = 999
REV_AT_EPOCH   = 171
BSTAR          = .86059E-3
MEAN_MOTION_DOT = .697794E-2
MEAN_MOTION_DDOT = .10349E-4

CCSDS_OMM_VERS = 2.0
CREATION_DATE  = 
ORIGINATOR     = 

OBJECT_NAME    = CZ-2F DEB
OBJECT_ID      = 2026-024D
CENTER_NAME    = EARTH
REF_FRAME      = TEME
TIME_SYSTEM    = UTC
MEAN_ELEMENT_THEORY = SGP/SGP4

EPOCH          = 2026-02-15T11:34:34.569984
MEAN_MOTION    = 15.15710043
ECCENTRICITY   = .0264941
INCLINATION    = 50.3154
RA_OF_ASC_NODE = 127.0852
ARG_OF_PERICENTER = 192.7826
MEAN_ANOMALY   = 266.1908

EPHEMERIS_TYPE = 0
CLASSIFICATION_TYPE = U
NORAD_CAT_ID   = 67692
ELEMENT_SET_NO = 999
REV_AT_EPOCH   = 62
BSTAR          = .50496E-2
MEAN_MOTION_DOT = .250388E-2
MEAN_MOTION_DDOT = 0

CCSDS_OMM_VERS = 2.0
CREATION_DATE  = 
ORIGINATOR     = 

OBJECT_NAME    = STARLINK-36748
OBJECT_ID      = 2026-025A
CENTER_NAME    = EARTH
REF_FRAME      = TEME
TIME_SYSTEM    = UTC
MEAN_ELEMENT_THEORY = SGP/SGP4

EPOCH          = 2026-02-18T04:00:01.999584
MEAN_MOTION    = 15.93180039
ECCENTRICITY   = .0001765
INCLINATION    = 97.2787
RA_OF_ASC_NODE = 159.6579
ARG_OF_PERICENTER = 61.0723
MEAN_ANOMALY   = 113.4055

EPHEMERIS_TYPE = 0
CLASSIFICATION_TYPE = U
NORAD_CAT_ID   = 67693
ELEMENT_SET_NO = 999
REV_AT_EPOCH   = 271
BSTAR          = -.43287E-2
MEAN_MOTION_DOT = -.1504968E-1
MEAN_MOTION_DDOT = .6495E-3

