2026-023J               
1 67682U 26023J   26049.20144198  .00011633  00000+0  49769-3 0  9993
2 67682  96.6393 126.9179 0022870 181.3597 178.7584 15.22704665  1879
ISS OBJECT XZ           
1 67683U 98067XZ  26048.55996253  .00034002  00000+0  59633-3 0  9991
2 67683  51.6311 171.7382 0010438 120.3988 239.8034 15.50177657  1661
GXIBA-1                 
1 67684U 98067YA  26048.55474937  .00059962  00000+0  10040-2 0  9992
2 67684  51.6311 171.7048 0012007 113.2004 247.0252 15.51206196  1660
CORAL                   
1 67685U 98067YB  26048.88125074  .00040088  00000+0  69545-3 0  9998
2 67685  51.6310 170.1343 0012301 117.1284 243.0961 15.50382591  1713
ISS OBJECT YC           
1 67686U 98067YC  26048.55801583  .00042395  00000+0  73145-3 0  9993
2 67686  51.6320 171.7264 0007773  88.8855 271.3025 15.50561623  1663
LEOPARD                 
1 67687U 98067YD  26048.62383860  .00037832  00000+0  66033-3 0  9993
2 67687  51.6322 171.4167 0007889  91.8390 268.3503 15.50286093  1595
ISS OBJECT YE           
1 67688U 98067YE  26048.62283168  .00043336  00000+0  74973-3 0  9992
2 67688  51.6318 171.4087 0007740  89.9843 270.2033 15.50474672  1591
PRC TEST SPACECRAFT 4   
1 67689U 26024A   26049.20017587 -.00000026  00000+0  21464-4 0  9990
2 67689  49.9851 114.2605 0006190 284.9701  75.0555 14.91674046  1673
CZ-2F R/B               
1 67690U 26024B   26049.15994556  .00020202  00000+0  37601-3 0  9992
2 67690  49.9876 112.4903 0176742 193.9597 165.6441 15.33494680  1699
CZ-2F DEB               
1 67691U 26024C   26049.14348468  .00697794  10349-4  86059-3 0  9996
2 67691  49.9078 110.0327 0240129 201.8463 157.2134 15.70392239  1717
CZ-2F DEB               
1 67692U 26024D   26046.48234456  .00250388  00000+0  50496-2 0  9999
2 67692  50.3154 127.0852 0264941 192.7826 266.1908 15.15710043   623
STARLINK-36748          
1 67693U 26025A   26049.16668981 -.01504968  64950-3 -43287-2 0  9990
2 67693  97.2787 159.6579 0001765  61.0723 113.4055 15.93180039  2711
